{
    "links": {
        "self": "http://www.neowsapp.com/rest/v1/neo/3695414?api_key=iIulBulltgU6a56xZRHN4H3l9WmuAYTsLGpBGhQ2"
    },
    "id": "3695414",
    "neo_reference_id": "3695414",
    "name": "(2014 UB176)",
    "designation": "2014 UB176",
    "nasa_jpl_url": "http://ssd.jpl.nasa.gov/sbdb.cgi?sstr=3695414",
    "absolute_magnitude_h": 21.7,
    "estimated_diameter": {
        "kilometers": {
            "estimated_diameter_min": 0.1214940408,
            "estimated_diameter_max": 0.2716689341
        },
        "meters": {
            "estimated_diameter_min": 121.4940407996,
            "estimated_diameter_max": 271.6689340891
        },
        "miles": {
            "estimated_diameter_min": 0.0754928736,
            "estimated_diameter_max": 0.1688071972
        },
        "feet": {
            "estimated_diameter_min": 398.6025088171,
            "estimated_diameter_max": 891.3023057169
        }
    },
    "is_potentially_hazardous_asteroid": false,
    "close_approach_data": [
        {
            "close_approach_date": "2003-03-01",
            "close_approach_date_full": "2003-Mar-01 18:51",
            "epoch_date_close_approach": 1046544660000,
            "relative_velocity": {
                "kilometers_per_second": "11.2395407624",
                "kilometers_per_hour": "40462.3467447134",
                "miles_per_hour": "25141.7287314582"
            },
            "miss_distance": {
                "astronomical": "0.4241443865",
                "lunar": "164.9921663485",
                "kilometers": "63451096.792856755",
                "miles": "39426683.307483019"
            },
            "orbiting_body": "Earth"
        },
        {
            "close_approach_date": "2014-11-15",
            "close_approach_date_full": "2014-Nov-15 17:53",
            "epoch_date_close_approach": 1416073980000,
            "relative_velocity": {
                "kilometers_per_second": "10.7064903203",
                "kilometers_per_hour": "38543.3651530494",
                "miles_per_hour": "23949.3481974601"
            },
            "miss_distance": {
                "astronomical": "0.4340183927",
                "lunar": "168.8331547603",
                "kilometers": "64928227.088743549",
                "miles": "40344529.5122530162"
            },
            "orbiting_body": "Earth"
        }
    ],
    "orbital_data": {
        "orbit_id": "7",
        "orbit_determination_date": "2017-04-06 08:37:42",
        "first_observation_date": "2014-10-28",
        "last_observation_date": "2014-11-20",
        "data_arc_in_days": 23,
        "observations_used": 25,
        "orbit_uncertainty": "7",
        "minimum_orbit_intersection": ".369855",
        "jupiter_tisserand_invariant": "3.916",
        "epoch_osculation": "2459000.5",
        "eccentricity": ".3634628145761808",
        "semi_major_axis": "1.796931940260498",
        "inclination": "21.33535793007117",
        "ascending_node_longitude": "208.500568848482",
        "orbital_period": "879.8241311487774",
        "perihelion_distance": "1.14381399965158",
        "perihelion_argument": "266.7339709638391",
        "aphelion_distance": "2.450049880869416",
        "perihelion_time": "2458819.623547827829",
        "mean_anomaly": "74.00970316301824",
        "mean_motion": ".4091726826473283",
        "equinox": "J2000",
        "orbit_class": {
            "orbit_class_type": "AMO",
            "orbit_class_description": "Near-Earth asteroid orbits similar to that of 1221 Amor",
            "orbit_class_range": "1.017 AU < q (perihelion) < 1.3 AU"
        }
    },
    "is_sentry_object": false
}